[{"OBJECT_NAME":"NEXSAT-1","OBJECT_ID":"2024-024E","EPOCH":"2026-03-09T22:47:24.778176","MEAN_MOTION":15.32166372,"ECCENTRICITY":0.00099795,"INCLINATION":97.3124,"RA_OF_ASC_NODE":144.1918,"ARG_OF_PERICENTER":108.5709,"MEAN_ANOMALY":251.6617,"EPHEMERIS_TYPE":0,"CLASSIFICATION_TYPE":"U","NORAD_CAT_ID":58921,"ELEMENT_SET_NO":999,"REV_AT_EPOCH":11669,"BSTAR":0.00031433612,"MEAN_MOTION_DOT":9.702e-5,"MEAN_MOTION_DDOT":0},{"OBJECT_NAME":"STARLINK-32353","OBJECT_ID":"2024-187P","EPOCH":"2026-03-09T10:07:45.453504","MEAN_MOTION":15.30205817,"ECCENTRICITY":0.00011866,"INCLINATION":53.1583,"RA_OF_ASC_NODE":66.1995,"ARG_OF_PERICENTER":101.2461,"MEAN_ANOMALY":258.8673,"EPHEMERIS_TYPE":0,"CLASSIFICATION_TYPE":"U","NORAD_CAT_ID":61587,"ELEMENT_SET_NO":999,"REV_AT_EPOCH":7898,"BSTAR":0.00061661825,"MEAN_MOTION_DOT":0.00017951,"MEAN_MOTION_DDOT":0}]
